NORAD_CAT_ID,OBJECT_NAME,OBJECT_TYPE,EPOCH,MEAN_MOTION,ECCENTRICITY,INCLINATION,RA_OF_ASC_NODE,ARG_OF_PERICENTER,MEAN_ANOMALY,BSTAR,MEAN_MOTION_DOT,MEAN_MOTION_DDOT,TLE_LINE0,TLE_LINE1,TLE_LINE2,SEMIMAJOR_AXIS,PERIOD,APOGEE,PERIGEE,DECAYED
51970.0,STARLINK-3677,PAYLOAD,2023-01-02 13:51:54,15.08840965,0.0002459,53.2146,206.0496,40.9873,319.1304,0.00014679,2.049e-05,0.0,0 STARLINK-3677,1 51970U 22025Q   23002.57771381  .00002049  00000-0  14679-3 0  9994,2 51970  53.2146 206.0496 0002459  40.9873 319.1304 15.08840965 46853,6917.877,95.437,541.444,538.0409999999998,0.0
51970.0,STARLINK-3677,PAYLOAD,2023-01-02 20:13:26,15.0884196,0.0002438,53.2146,204.8599,42.3592,317.7588,0.00015525,2.183e-05,0.0,0 STARLINK-3677,1 51970U 22025Q   23002.84267336  .00002183  00000-0  15525-3 0  9994,2 51970  53.2146 204.8599 0002438  42.3592 317.7588 15.08841960 45802,6917.874,95.437,541.4259999999998,538.053,0.0
51970.0,STARLINK-3677,PAYLOAD,2023-01-03 13:42:41,15.08838972,0.0002433,53.2143,201.5888,44.2144,315.9042,1.1348e-05,-1.08e-06,0.0,0 STARLINK-3677,1 51970U 22025Q   23003.57131447 -.00000108  00000-0  11348-4 0  9994,2 51970  53.2143 201.5888 0002433  44.2144 315.9042 15.08838972 45919,6917.884,95.438,541.432,538.065,0.0
51970.0,STARLINK-3677,PAYLOAD,2023-01-04 05:36:32,15.08841318,0.000244,53.2159,198.6155,44.1527,315.966,8.1397e-05,1.007e-05,0.0,0 STARLINK-3677,1 51970U 22025Q   23004.23371479  .00001007  00000-0  81397-4 0  9998,2 51970  53.2159 198.6155 0002440  44.1527 315.9660 15.08841318 47108,6917.876,95.437,541.429,538.053,0.0
51970.0,STARLINK-3677,PAYLOAD,2023-01-04 19:55:00,15.08843988,0.0002449,53.2158,195.9391,46.5904,313.5292,0.00012154,1.647e-05,0.0,0 STARLINK-3677,1 51970U 22025Q   23004.82987196  .00001647  00000-0  12154-3 0  9996,2 51970  53.2158 195.9391 0002449  46.5904 313.5292 15.08843988 46102,6917.868,95.437,541.427,538.039,0.0
51970.0,STARLINK-3677,PAYLOAD,2023-01-05 13:24:16,15.0883432,0.0002404,53.2164,192.6678,50.4539,309.6666,5.2832e-05,5.52e-06,0.0,0 STARLINK-3677,1 51970U 22025Q   23005.55852005  .00000552  00000-0  52832-4 0  9999,2 51970  53.2164 192.6678 0002404  50.4539 309.6666 15.08834320 47304,6917.898,95.438,541.4259999999998,538.1,0.0
51970.0,STARLINK-3677,PAYLOAD,2023-01-06 11:39:39,15.08840865,0.0002438,53.2163,188.5044,51.7104,308.4107,5.8542e-05,6.43e-06,0.0,0 STARLINK-3677,1 51970U 22025Q   23006.48587697  .00000643  00000-0  58542-4 0  9999,2 51970  53.2163 188.5044 0002438  51.7104 308.4107 15.08840865 47446,6917.8780000000015,95.437,541.429,538.056,0.0
51970.0,STARLINK-3677,PAYLOAD,2023-01-06 21:11:58,15.08844661,0.0002451,53.2161,186.7203,52.4283,307.6932,7.083899999999999e-05,8.39e-06,0.0,0 STARLINK-3677,1 51970U 22025Q   23006.88331371  .00000839  00000-0  70839-4 0  9999,2 51970  53.2161 186.7203 0002451  52.4283 307.6932 15.08844661 46413,6917.866,95.437,541.427,538.036,0.0
51970.0,STARLINK-3677,PAYLOAD,2023-01-07 05:08:54,15.08842286,0.0002427,53.2163,185.2343,51.9948,308.1263,7.696600000000001e-05,9.37e-06,0.0,0 STARLINK-3677,1 51970U 22025Q   23007.21451545  .00000937  00000-0  76966-4 0  9999,2 51970  53.2163 185.2343 0002427  51.9948 308.1263 15.08842286 46468,6917.873000000001,95.437,541.4169999999998,538.059,0.0
51970.0,STARLINK-3677,PAYLOAD,2023-01-07 21:02:45,15.08842465,0.0002331,53.2155,182.2596,56.1971,303.9243,0.00010993,1.462e-05,0.0,0 STARLINK-3677,1 51970U 22025Q   23007.87691464  .00001462  00000-0  10993-3 0  9998,2 51970  53.2155 182.2596 0002331  56.1971 303.9243 15.08842465 47655,6917.873000000001,95.437,541.35,538.125,0.0
51970.0,STARLINK-3677,PAYLOAD,2023-01-08 04:59:41,15.08841562,0.0002397,53.2156,180.7733,55.4363,304.6855,7.9176e-05,9.72e-06,0.0,0 STARLINK-3677,1 51970U 22025Q   23008.20811586  .00000972  00000-0  79176-4 0  9999,2 51970  53.2156 180.7733 0002397  55.4363 304.6855 15.08841562 46610,6917.876,95.437,541.399,538.082,0.0
51970.0,STARLINK-3677,PAYLOAD,2023-01-08 14:32:00,15.08839627,0.0002433,53.2157,178.9889,57.5704,302.5523,3.8961e-05,3.32e-06,0.0,0 STARLINK-3677,1 51970U 22025Q   23008.60555829  .00000332  00000-0  38961-4 0  9995,2 51970  53.2157 178.9889 0002433  57.5704 302.5523 15.08839627 47760,6917.882,95.438,541.43,538.063,0.0
51970.0,STARLINK-3677,PAYLOAD,2023-01-08 20:53:32,15.08843811,0.0002418,53.2155,177.7991,58.95,301.173,6.9231e-05,8.14e-06,0.0,0 STARLINK-3677,1 51970U 22025Q   23008.87051459  .00000814  00000-0  69231-4 0  9993,2 51970  53.2155 177.7991 0002418  58.9500 301.1730 15.08843811 46710,6917.8690000000015,95.437,541.406,538.061,0.0
51970.0,STARLINK-3677,PAYLOAD,2023-01-09 11:12:01,15.08836259,0.0002291,53.2157,175.1224,60.3578,299.7642,8.5272e-05,1.069e-05,0.0,0 STARLINK-3677,1 51970U 22025Q   23009.46667843  .00001069  00000-0  85272-4 0  9995,2 51970  53.2157 175.1224 0002291  60.3578 299.7642 15.08836259 46806,6917.892,95.438,541.342,538.172,0.0
51970.0,STARLINK-3677,PAYLOAD,2023-01-09 20:44:19,15.08842753,0.0002258,53.2157,173.3379,63.2062,296.9161,5.3217e-05,5.59e-06,0.0,0 STARLINK-3677,1 51970U 22025Q   23009.86411467  .00000559  00000-0  53217-4 0  9995,2 51970  53.2157 173.3379 0002258  63.2062 296.9161 15.08842753 46867,6917.871999999999,95.437,541.299,538.175,0.0
51970.0,STARLINK-3677,PAYLOAD,2023-01-10 11:02:48,15.08839174,0.0002497,53.215,170.6612,69.3178,290.8082,4.9824e-05,5.05e-06,0.0,0 STARLINK-3677,1 51970U 22025Q   23010.46027826  .00000505  00000-0  49824-4 0  9995,2 51970  53.2150 170.6612 0002497  69.3178 290.8082 15.08839174 46958,6917.883000000002,95.438,541.475,538.021,0.0
51970.0,STARLINK-3677,PAYLOAD,2023-01-10 17:24:20,15.08846916,0.0002482,53.2151,169.4735,61.3897,298.7345,3.882e-07,-2.82e-06,0.0,0 STARLINK-3677,1 51970U 22025Q   23010.72523332 -.00000282  00000-0  38820-6 0  9996,2 51970  53.2151 169.4735 0002482  61.3897 298.7345 15.08846916 46990,6917.859,95.437,541.441,538.007,0.0
51970.0,STARLINK-3677,PAYLOAD,2023-01-11 12:28:57,15.08865145,0.0002275,53.215,165.9065,66.7561,293.3671,-0.00033482,-5.617e-05,0.0,0 STARLINK-3677,1 51970U 22025Q   23011.52011505 -.00005617  00000-0 -33482-3 0  9993,2 51970  53.2150 165.9065 0002275  66.7561 293.3671 15.08865145 48207,6917.804,95.436,541.242,538.095,0.0
51970.0,STARLINK-3677,PAYLOAD,2023-01-11 17:15:06,15.08866697,0.0002156,53.2149,165.0148,59.6204,300.5001,-0.0002883,-4.877e-05,0.0,0 STARLINK-3677,1 51970U 22025Q   23011.71882946 -.00004877  00000-0 -28830-3 0  9997,2 51970  53.2149 165.0148 0002156  59.6204 300.5001 15.08866697 47144,6917.799,95.436,541.155,538.172,0.0
51970.0,STARLINK-3677,PAYLOAD,2023-01-12 02:47:26,15.08819252,0.0002109,53.2148,163.2312,65.0079,295.1132,0.00037045,5.609e-05,0.0,0 STARLINK-3677,1 51970U 22025Q   23012.11628393  .00005609  00000-0  37045-3 0  9996,2 51970  53.2148 163.2312 0002109  65.0079 295.1132 15.08819252 48291,6917.944,95.439,541.268,538.35,0.0
51970.0,STARLINK-3677,PAYLOAD,2023-01-12 18:41:17,15.08842358,0.0002378,53.213,160.25799999999995,75.6853,284.4403,8.316299999999999e-05,1.036e-05,0.0,0 STARLINK-3677,1 51970U 22025Q   23012.77867785  .00001036  00000-0  83163-4 0  9991,2 51970  53.2130 160.2580 0002378  75.6853 284.4403 15.08842358 48397,6917.873000000001,95.437,541.383,538.0930000000002,0.0
51970.0,STARLINK-3677,PAYLOAD,2023-01-13 02:38:14,15.08830695,0.0004006,53.2095,158.7689,79.0675,281.0768,6.3927e-05,7.28e-06,0.0,0 STARLINK-3677,1 51970U 22025Q   23013.10989179  .00000728  00000-0  63927-4 0  9994,2 51970  53.2095 158.7689 0004006  79.0675 281.0768 15.08830695 48443,6917.9090000000015,95.438,542.545,537.003,0.0
51970.0,STARLINK-3677,PAYLOAD,2023-01-13 12:10:32,15.088443300000002,0.0002921999999999,53.2133,156.9837,76.5941,283.5376,-1.9072e-05,-5.92e-06,0.0,0 STARLINK-3677,1 51970U 22025Q   23013.50732360 -.00000592  00000-0 -19072-4 0  9999,2 51970  53.2133 156.9837 0002922  76.5941 283.5376 15.08844330 48504,6917.866999999999,95.437,541.754,537.711,0.0
51970.0,STARLINK-3677,PAYLOAD,2023-01-13 18:32:04,15.08846591,0.0002645,53.2126,155.7988,73.3978,286.7305,0.00011842,1.597e-05,0.0,0 STARLINK-3677,1 51970U 22025Q   23013.77227708  .00001597  00000-0  11842-3 0  9993,2 51970  53.2126 155.7988 0002645  73.3978 286.7305 15.08846591 47458,6917.86,95.437,541.555,537.895,0.0
51970.0,STARLINK-3677,PAYLOAD,2023-01-14 15:12:05,15.08842332,0.0002728999999999,53.2118,151.9287,77.4174,282.7123,8.550100000000001e-05,1.073e-05,0.0,0 STARLINK-3677,1 51970U 22025Q   23014.63340037  .00001073  00000-0  85501-4 0  9993,2 51970  53.2118 151.9287 0002729  77.4174 282.7123 15.08842332 48673,6917.8730000000005,95.437,541.626,537.85,0.0
51970.0,STARLINK-3677,PAYLOAD,2023-01-15 13:27:30,15.08836648,0.0002285,53.2147,147.7678,77.4027,282.722,5.0554e-05,5.16e-06,0.0,0 STARLINK-3677,1 51970U 22025Q   23015.56076477  .00000516  00000-0  50554-4 0  9991,2 51970  53.2147 147.7678 0002285  77.4027 282.7220 15.08836648 48813,6917.891,95.438,541.336,538.175,0.0
51970.0,STARLINK-3677,PAYLOAD,2023-01-15 15:02:53,15.08836198,0.0002085,53.2153,147.4707,77.3057,282.8168,5.1783e-05,5.36e-06,0.0,0 STARLINK-3677,1 51970U 22025Q   23015.62700482  .00000536  00000-0  51783-4 0  9995,2 51970  53.2153 147.4707 0002085  77.3057 282.8168 15.08836198 47732,6917.892,95.438,541.1990000000001,538.315,0.0
51970.0,STARLINK-3677,PAYLOAD,2023-01-15 18:13:38,15.08850094,0.0002015,53.2163,146.8721,84.6294,275.4928,5.7385e-05,6.25e-06,0.0,0 STARLINK-3677,1 51970U 22025Q   23015.75947482  .00000625  00000-0  57385-4 0  9995,2 51970  53.2163 146.8721 0002015  84.6294 275.4928 15.08850094 48845,6917.85,95.437,541.1080000000001,538.321,0.0
51970.0,STARLINK-3677,PAYLOAD,2023-01-16 02:10:34,15.08841661,0.0001972,53.2148,145.3865,85.4805,274.6412,9.4756e-05,1.22e-05,0.0,0 STARLINK-3677,1 51970U 22025Q   23016.09067933  .00001220  00000-0  94756-4 0  9992,2 51970  53.2148 145.3865 0001972  85.4805 274.6412 15.08841661 48893,6917.875,95.437,541.105,538.376,0.0
